{
  "type": "FeatureCollection",
  "features": [
    {
      "type": "Feature",
      "properties": {
        "norad_id": 30728,
        "name": "FENGYUN 1C DEB",
        "group": "fengyun-1c-debris",
        "lat": -70.9095752531495,
        "lon": 31.166712430297245,
        "alt_km": 854.9115573108329,
        "timestamp": "2025-12-25T03:55:56.636363+00:00",
        "meta_object_name": "FENGYUN 1C DEB",
        "meta_object_id": "1999-025ASN",
        "meta_epoch": "2025-12-24T13:05:26.600064",
        "meta_mean_motion": 14.23478489,
        "meta_eccentricity": 0.0099257,
        "meta_inclination": 98.5293,
        "meta_ra_of_asc_node": 4.8703,
        "meta_arg_of_pericenter": 47.944,
        "meta_mean_anomaly": 313.0131,
        "meta_ephemeris_type": 0,
        "meta_classification_type": "U",
        "meta_norad_cat_id": 30728,
        "meta_element_set_no": 999,
        "meta_rev_at_epoch": 97857,
        "meta_bstar": 7.2135e-05,
        "meta_mean_motion_dot": 1.31e-06,
        "meta_mean_motion_ddot": 0,
        "tle_line1": "1 30728U 99025ASN 25358.54544676  .00000131  00000+0  72135-4 0  9995",
        "tle_line2": "2 30728  98.5293   4.8703 0099257  47.9440 313.0131 14.23478489978578"
      },
      "geometry": {
        "type": "Point",
        "coordinates": [
          31.166712430297245,
          -70.9095752531495
        ]
      }
    },
    {
      "type": "Feature",
      "properties": {
        "norad_id": 30730,
        "name": "FENGYUN 1C DEB",
        "group": "fengyun-1c-debris",
        "lat": -43.162175701651556,
        "lon": 46.24729394373829,
        "alt_km": 782.4369574555203,
        "timestamp": "2025-12-25T03:55:56.636374+00:00",
        "meta_object_name": "FENGYUN 1C DEB",
        "meta_object_id": "1999-025ASQ",
        "meta_epoch": "2025-12-24T01:28:34.361184",
        "meta_mean_motion": 14.25525146,
        "meta_eccentricity": 0.00777537,
        "meta_inclination": 98.617,
        "meta_ra_of_asc_node": 36.9885,
        "meta_arg_of_pericenter": 16.3377,
        "meta_mean_anomaly": 46.8262,
        "meta_ephemeris_type": 0,
        "meta_classification_type": "U",
        "meta_norad_cat_id": 30730,
        "meta_element_set_no": 999,
        "meta_rev_at_epoch": 97167,
        "meta_bstar": 0.00097425581,
        "meta_mean_motion_dot": 2.335e-05,
        "meta_mean_motion_ddot": 0,
        "tle_line1": "1 30730U 99025ASQ 25358.06150881  .00002335  00000+0  97426-3 0  9993",
        "tle_line2": "2 30730  98.6170  36.9885 0077753  16.3377  46.8262 14.25525146971674"
      },
      "geometry": {
        "type": "Point",
        "coordinates": [
          46.24729394373829,
          -43.162175701651556
        ]
      }
    },
    {
      "type": "Feature",
      "properties": {
        "norad_id": 30731,
        "name": "FENGYUN 1C DEB",
        "group": "fengyun-1c-debris",
        "lat": 44.288861166708315,
        "lon": -92.21353920117862,
        "alt_km": 745.6805501879498,
        "timestamp": "2025-12-25T03:55:56.636384+00:00",
        "meta_object_name": "FENGYUN 1C DEB",
        "meta_object_id": "1999-025ASR",
        "meta_epoch": "2025-12-24T04:07:51.777984",
        "meta_mean_motion": 14.41916933,
        "meta_eccentricity": 0.00157644,
        "meta_inclination": 98.8584,
        "meta_ra_of_asc_node": 78.0076,
        "meta_arg_of_pericenter": 214.3274,
        "meta_mean_anomaly": 175.7867,
        "meta_ephemeris_type": 0,
        "meta_classification_type": "U",
        "meta_norad_cat_id": 30731,
        "meta_element_set_no": 999,
        "meta_rev_at_epoch": 97521,
        "meta_bstar": 0.0023450016,
        "meta_mean_motion_dot": 7.652e-05,
        "meta_mean_motion_ddot": 0,
        "tle_line1": "1 30731U 99025ASR 25358.17212706  .00007652  00000+0  23450-2 0  9993",
        "tle_line2": "2 30731  98.8584  78.0076 0015764 214.3274 175.7867 14.41916933975218"
      },
      "geometry": {
        "type": "Point",
        "coordinates": [
          -92.21353920117862,
          44.288861166708315
        ]
      }
    },
    {
      "type": "Feature",
      "properties": {
        "norad_id": 30732,
        "name": "FENGYUN 1C DEB",
        "group": "fengyun-1c-debris",
        "lat": -10.599749265291441,
        "lon": 20.552177570135026,
        "alt_km": 974.2792136051266,
        "timestamp": "2025-12-25T03:55:56.636394+00:00",
        "meta_object_name": "FENGYUN 1C DEB",
        "meta_object_id": "1999-025ASS",
        "meta_epoch": "2025-12-24T18:01:27.968160",
        "meta_mean_motion": 14.03912541,
        "meta_eccentricity": 0.0124188,
        "meta_inclination": 98.803,
        "meta_ra_of_asc_node": 18.4905,
        "meta_arg_of_pericenter": 175.3173,
        "meta_mean_anomaly": 248.6193,
        "meta_ephemeris_type": 0,
        "meta_classification_type": "U",
        "meta_norad_cat_id": 30732,
        "meta_element_set_no": 999,
        "meta_rev_at_epoch": 96360,
        "meta_bstar": 0.00010533,
        "meta_mean_motion_dot": 1.36e-06,
        "meta_mean_motion_ddot": 0,
        "tle_line1": "1 30732U 99025ASS 25358.75101815  .00000136  00000+0  10533-3 0  9995",
        "tle_line2": "2 30732  98.8030  18.4905 0124188 175.3173 248.6193 14.03912541963600"
      },
      "geometry": {
        "type": "Point",
        "coordinates": [
          20.552177570135026,
          -10.599749265291441
        ]
      }
    },
    {
      "type": "Feature",
      "properties": {
        "norad_id": 30735,
        "name": "FENGYUN 1C DEB",
        "group": "fengyun-1c-debris",
        "lat": 36.32037501342071,
        "lon": 63.67879722865908,
        "alt_km": 852.0829929900992,
        "timestamp": "2025-12-25T03:55:56.636404+00:00",
        "meta_object_name": "FENGYUN 1C DEB",
        "meta_object_id": "1999-025ASV",
        "meta_epoch": "2025-12-24T16:40:04.639296",
        "meta_mean_motion": 14.24050042,
        "meta_eccentricity": 0.0060325,
        "meta_inclination": 98.7624,
        "meta_ra_of_asc_node": 69.7213,
        "meta_arg_of_pericenter": 210.6445,
        "meta_mean_anomaly": 301.5421,
        "meta_ephemeris_type": 0,
        "meta_classification_type": "U",
        "meta_norad_cat_id": 30735,
        "meta_element_set_no": 999,
        "meta_rev_at_epoch": 96918,
        "meta_bstar": 0.0016071,
        "meta_mean_motion_dot": 3.72e-05,
        "meta_mean_motion_ddot": 0,
        "tle_line1": "1 30735U 99025ASV 25358.69449814  .00003720  00000+0  16071-2 0  9999",
        "tle_line2": "2 30735  98.7624  69.7213 0060325 210.6445 301.5421 14.24050042969183"
      },
      "geometry": {
        "type": "Point",
        "coordinates": [
          63.67879722865908,
          36.32037501342071
        ]
      }
    },
    {
      "type": "Feature",
      "properties": {
        "norad_id": 30736,
        "name": "FENGYUN 1C DEB",
        "group": "fengyun-1c-debris",
        "lat": 22.1466542164248,
        "lon": 32.26660443994544,
        "alt_km": 822.3110909824582,
        "timestamp": "2025-12-25T03:55:56.636414+00:00",
        "meta_object_name": "FENGYUN 1C DEB",
        "meta_object_id": "1999-025ASW",
        "meta_epoch": "2025-12-22T02:01:20.851104",
        "meta_mean_motion": 13.6166731,
        "meta_eccentricity": 0.0279263,
        "meta_inclination": 98.7812,
        "meta_ra_of_asc_node": 33.0986,
        "meta_arg_of_pericenter": 29.8764,
        "meta_mean_anomaly": 24.4821,
        "meta_ephemeris_type": 0,
        "meta_classification_type": "U",
        "meta_norad_cat_id": 30736,
        "meta_element_set_no": 999,
        "meta_rev_at_epoch": 92980,
        "meta_bstar": 0.0017109698,
        "meta_mean_motion_dot": 1.664e-05,
        "meta_mean_motion_ddot": 0,
        "tle_line1": "1 30736U 99025ASW 25356.08426911  .00001664  00000+0  17110-2 0  9994",
        "tle_line2": "2 30736  98.7812  33.0986 0279263  29.8764  24.4821 13.61667310929803"
      },
      "geometry": {
        "type": "Point",
        "coordinates": [
          32.26660443994544,
          22.1466542164248
        ]
      }
    },
    {
      "type": "Feature",
      "properties": {
        "norad_id": 30737,
        "name": "FENGYUN 1C DEB",
        "group": "fengyun-1c-debris",
        "lat": 63.60942775822324,
        "lon": -36.64639812881996,
        "alt_km": 809.9862684524487,
        "timestamp": "2025-12-25T03:55:56.636424+00:00",
        "meta_object_name": "FENGYUN 1C DEB",
        "meta_object_id": "1999-025ASX",
        "meta_epoch": "2025-12-23T10:01:47.285760",
        "meta_mean_motion": 14.18267436,
        "meta_eccentricity": 0.00244509,
        "meta_inclination": 98.5803,
        "meta_ra_of_asc_node": 339.3801,
        "meta_arg_of_pericenter": 101.8467,
        "meta_mean_anomaly": 53.9597,
        "meta_ephemeris_type": 0,
        "meta_classification_type": "U",
        "meta_norad_cat_id": 30737,
        "meta_element_set_no": 999,
        "meta_rev_at_epoch": 97184,
        "meta_bstar": 0.00028832447,
        "meta_mean_motion_dot": 5.53e-06,
        "meta_mean_motion_ddot": 0,
        "tle_line1": "1 30737U 99025ASX 25357.41790840  .00000553  00000+0  28832-3 0  9998",
        "tle_line2": "2 30737  98.5803 339.3801 0024450 101.8467  53.9597 14.18267436971843"
      },
      "geometry": {
        "type": "Point",
        "coordinates": [
          -36.64639812881996,
          63.60942775822324
        ]
      }
    }
  ]
}